{"type": "FeatureCollection", "features": [{"type": "Feature", "id": "NZ.AKFZ", "properties": {"code": "AKFZ", "name": "AKFZ", "refid": null, "instrumentType": "UNK", "source": null, "network": "NZ", "commType": "UNK", "location": "", "intensity": 1.0, "intensity_flag": "", "intensity_stddev": 0.643, "pga": "null", "pgv": 0.0107, "distance": 275.069, "elev": null, "vs30": 674.41, "channels": [{"name": "20.HNE", "amplitudes": [{"name": "pga", "value": 0.0072, "units": "%g", "flag": "Outlier", "ln_sigma": 0.0}, {"name": "pgv", "value": 0.0107, "units": "cm/s", "flag": "0", "ln_sigma": 0.0}, {"name": "sa(0.3)", "value": 0.0086, "units": "%g", "flag": "0", "ln_sigma": 0.0}, {"name": "sa(1.0)", "value": 0.0228, "units": "%g", "flag": "0", "ln_sigma": 0.0}, {"name": "sa(3.0)", "value": 0.0026, "units": "%g", "flag": "0", "ln_sigma": 0.0}]}, {"name": "20.HNN", "amplitudes": [{"name": "pga", "value": 0.0083, "units": "%g", "flag": "Outlier", "ln_sigma": 0.0}, {"name": "pgv", "value": 0.0095, "units": "cm/s", "flag": "0", "ln_sigma": 0.0}, {"name": "sa(0.3)", "value": 0.0152, "units": "%g", "flag": "0", "ln_sigma": 0.0}, {"name": "sa(1.0)", "value": 0.0134, "units": "%g", "flag": "0", "ln_sigma": 0.0}, {"name": "sa(3.0)", "value": 0.0021, "units": "%g", "flag": "0", "ln_sigma": 0.0}]}, {"name": "20.HNZ", "amplitudes": [{"name": "pga", "value": 0.004, "units": "%g", "flag": "Outlier", "ln_sigma": 0.0}, {"name": "pgv", "value": 0.0035, "units": "cm/s", "flag": "0", "ln_sigma": 0.0}, {"name": "sa(0.3)", "value": 0.0049, "units": "%g", "flag": "0", "ln_sigma": 0.0}, {"name": "sa(1.0)", "value": 0.006, "units": "%g", "flag": "0", "ln_sigma": 0.0}, {"name": "sa(3.0)", "value": 0.0008, "units": "%g", "flag": "0", "ln_sigma": 0.0}]}], "station_type": "seismic", "nresp": "null", "predictions": [{"name": "mmi", "value": 2.2056, "value_rock": 2.2056, "value_soil": 2.2056, "units": "intensity", "tau": 0.3993, "phi": 0.6063, "sigma": 0.7259, "sigma_rock": 0.7259, "sigma_soil": 0.7259, "bias": 0.0, "bias_sigma": 0.0898}, {"name": "sa(0.3)", "value": 0.1057, "value_rock": 0.1031, "value_soil": 0.191, "units": "%g", "ln_tau": 0.3402, "ln_phi": 0.6393, "ln_sigma": 0.7242, "ln_sigma_rock": 0.7328, "ln_sigma_soil": 0.7328, "ln_bias": 0.0, "ln_bias_sigma": 0.0764}, {"name": "sa(3.0)", "value": 0.0026, "value_rock": 0.0025, "value_soil": 0.0051, "units": "%g", "ln_tau": 0.3384, "ln_phi": 0.6283, "ln_sigma": 0.7136, "ln_sigma_rock": 0.726, "ln_sigma_soil": 0.726, "ln_bias": 0.0, "ln_bias_sigma": 0.0747}, {"name": "pgv", "value": 0.0229, "value_rock": 0.0221, "value_soil": 0.0481, "units": "cm/s", "ln_tau": 0.3217, "ln_phi": 0.5848, "ln_sigma": 0.6675, "ln_sigma_rock": 0.672, "ln_sigma_soil": 0.672, "ln_bias": 0.0, "ln_bias_sigma": 0.0702}, {"name": "sa(1.0)", "value": 0.0193, "value_rock": 0.0187, "value_soil": 0.0429, "units": "%g", "ln_tau": 0.3684, "ln_phi": 0.6272, "ln_sigma": 0.7274, "ln_sigma_rock": 0.7385, "ln_sigma_soil": 0.7385, "ln_bias": 0.0, "ln_bias_sigma": 0.2771}, {"name": "pga", "value": 0.1019, "value_rock": 0.1003, "value_soil": 0.1336, "units": "%g", "ln_tau": 0.4013, "ln_phi": 0.5814, "ln_sigma": 0.7064, "ln_sigma_rock": 0.7114, "ln_sigma_soil": 0.7114, "ln_bias": 0.0, "ln_bias_sigma": 0.0721}], "mmi_from_pgm": [{"name": "sa(0.3)", "value": 1.0, "sigma": 0.82, "flag": "0"}, {"name": "sa(3.0)", "value": 1.33, "sigma": 0.89, "flag": "0"}, {"name": "pgv", "value": 1.0, "sigma": 0.64, "flag": "0"}, {"name": "sa(1.0)", "value": 1.0, "sigma": 0.75, "flag": "0"}, {"name": "pga", "value": 1.0, "sigma": 0.62, "flag": "Outlier"}], "distance_stddev": 0.944, "distances": {"repi": 217.412, "rhypo": 276.232, "rjb": 216.097, "rjb_var": 0.779, "rrup": 275.069, "rrup_var": 0.891, "rx": 0.0, "ry0": 0.0, "rvolc": 0.0}}, "geometry": {"type": "Point", "coordinates": [174.522, -36.6057]}}, {"type": "Feature", "id": "NZ.ARKS", "properties": {"code": "ARKS", "name": "ARKS", "refid": null, "instrumentType": "UNK", "source": null, "network": "NZ", "commType": "UNK", "location": "", "intensity": 2.8, "intensity_flag": "", "intensity_stddev": 0.62, "pga": 0.3007, "pgv": "null", "distance": 393.324, "elev": null, "vs30": 582.44, "channels": [{"name": "20.HN1", "amplitudes": [{"name": "pga", "value": 0.2635, "units": "%g", "flag": "0", "ln_sigma": 0.0}, {"name": "pgv", "value": 0.0795, "units": "cm/s", "flag": "Outlier", "ln_sigma": 0.0}, {"name": "sa(0.3)", "value": 0.3996, "units": "%g", "flag": "Outlier", "ln_sigma": 0.0}, {"name": "sa(1.0)", "value": 0.0246, "units": "%g", "flag": "0", "ln_sigma": 0.0}, {"name": "sa(3.0)", "value": 0.0031, "units": "%g", "flag": "0", "ln_sigma": 0.0}]}, {"name": "20.HN2", "amplitudes": [{"name": "pga", "value": 0.3007, "units": "%g", "flag": "0", "ln_sigma": 0.0}, {"name": "pgv", "value": 0.0884, "units": "cm/s", "flag": "Outlier", "ln_sigma": 0.0}, {"name": "sa(0.3)", "value": 0.6266, "units": "%g", "flag": "Outlier", "ln_sigma": 0.0}, {"name": "sa(1.0)", "value": 0.0255, "units": "%g", "flag": "0", "ln_sigma": 0.0}, {"name": "sa(3.0)", "value": 0.0033, "units": "%g", "flag": "0", "ln_sigma": 0.0}]}, {"name": "20.HNZ", "amplitudes": [{"name": "pga", "value": 0.1076, "units": "%g", "flag": "0", "ln_sigma": 0.0}, {"name": "pgv", "value": 0.0259, "units": "cm/s", "flag": "Outlier", "ln_sigma": 0.0}, {"name": "sa(0.3)", "value": 0.1433, "units": "%g", "flag": "Outlier", "ln_sigma": 0.0}, {"name": "sa(1.0)", "value": 0.009, "units": "%g", "flag": "0", "ln_sigma": 0.0}, {"name": "sa(3.0)", "value": 0.0026, "units": "%g", "flag": "0", "ln_sigma": 0.0}]}], "station_type": "seismic", "nresp": "null", "predictions": [{"name": "mmi", "value": 1.8098, "value_rock": 1.8098, "value_soil": 1.8098, "units": "intensity", "tau": 0.3976, "phi": 0.6038, "sigma": 0.7229, "sigma_rock": 0.7229, "sigma_soil": 0.7229, "bias": 0.0, "bias_sigma": 0.0895}, {"name": "sa(0.3)", "value": 0.0482, "value_rock": 0.0385, "value_soil": 0.0713, "units": "%g", "ln_tau": 0.3402, "ln_phi": 0.6392, "ln_sigma": 0.7241, "ln_sigma_rock": 0.7328, "ln_sigma_soil": 0.7328, "ln_bias": 0.0, "ln_bias_sigma": 0.0764}, {"name": "sa(3.0)", "value": 0.0013, "value_rock": 0.0012, "value_soil": 0.0024, "units": "%g", "ln_tau": 0.3384, "ln_phi": 0.6282, "ln_sigma": 0.7136, "ln_sigma_rock": 0.726, "ln_sigma_soil": 0.726, "ln_bias": 0.0, "ln_bias_sigma": 0.0747}, {"name": "pgv", "value": 0.0112, "value_rock": 0.009, "value_soil": 0.0197, "units": "cm/s", "ln_tau": 0.3217, "ln_phi": 0.5848, "ln_sigma": 0.6675, "ln_sigma_rock": 0.672, "ln_sigma_soil": 0.672, "ln_bias": 0.0, "ln_bias_sigma": 0.0702}, {"name": "sa(1.0)", "value": 0.0091, "value_rock": 0.0076, "value_soil": 0.0175, "units": "%g", "ln_tau": 0.3684, "ln_phi": 0.6272, "ln_sigma": 0.7274, "ln_sigma_rock": 0.7385, "ln_sigma_soil": 0.7385, "ln_bias": 0.0, "ln_bias_sigma": 0.2771}, {"name": "pga", "value": 0.0425, "value_rock": 0.0379, "value_soil": 0.0505, "units": "%g", "ln_tau": 0.4013, "ln_phi": 0.5814, "ln_sigma": 0.7064, "ln_sigma_rock": 0.7114, "ln_sigma_soil": 0.7114, "ln_bias": 0.0, "ln_bias_sigma": 0.0721}], "mmi_from_pgm": [{"name": "sa(0.3)", "value": 3.03, "sigma": 0.82, "flag": "Outlier"}, {"name": "sa(3.0)", "value": 1.54, "sigma": 0.89, "flag": "0"}, {"name": "pgv", "value": 2.34, "sigma": 0.64, "flag": "Outlier"}, {"name": "sa(1.0)", "value": 1.04, "sigma": 0.75, "flag": "0"}, {"name": "pga", "value": 2.84, "sigma": 0.62, "flag": "0"}], "distance_stddev": 0.935, "distances": {"repi": 355.891, "rhypo": 394.581, "rjb": 354.575, "rjb_var": 0.78, "rrup": 393.324, "rrup_var": 0.875, "rx": 0.0, "ry0": 0.0, "rvolc": 0.0}}, "geometry": {"type": "Point", "coordinates": [174.944, -41.2421]}}, {"type": "Feature", "id": "NZ.BFZ", "properties": {"code": "BFZ", "name": "BFZ", "refid": null, "instrumentType": "UNK", "source": null, "network": "NZ", "commType": "UNK", "location": "", "intensity": 2.1, "intensity_flag": "", "intensity_stddev": 0.643, "pga": 0.1454, "pgv": 0.0665, "distance": 328.103, "elev": null, "vs30": 999.33, "channels": [{"name": "20.HNE", "amplitudes": [{"name": "pga", "value": 0.1454, "units": "%g", "flag": "0", "ln_sigma": 0.0}, {"name": "pgv", "value": 0.0494, "units": "cm/s", "flag": "0", "ln_sigma": 0.0}, {"name": "sa(0.3)", "value": 0.2384, "units": "%g", "flag": "0", "ln_sigma": 0.0}, {"name": "sa(1.0)", "value": 0.0336, "units": "%g", "flag": "0", "ln_sigma": 0.0}, {"name": "sa(3.0)", "value": 0.0034, "units": "%g", "flag": "0", "ln_sigma": 0.0}]}, {"name": "20.HNN", "amplitudes": [{"name": "pga", "value": 0.1287, "units": "%g", "flag": "0", "ln_sigma": 0.0}, {"name": "pgv", "value": 0.0665, "units": "cm/s", "flag": "0", "ln_sigma": 0.0}, {"name": "sa(0.3)", "value": 0.3344, "units": "%g", "flag": "0", "ln_sigma": 0.0}, {"name": "sa(1.0)", "value": 0.0355, "units": "%g", "flag": "0", "ln_sigma": 0.0}, {"name": "sa(3.0)", "value": 0.0018, "units": "%g", "flag": "0", "ln_sigma": 0.0}]}, {"name": "20.HNZ", "amplitudes": [{"name": "pga", "value": 0.0637, "units": "%g", "flag": "0", "ln_sigma": 0.0}, {"name": "pgv", "value": 0.0249, "units": "cm/s", "flag": "0", "ln_sigma": 0.0}, {"name": "sa(0.3)", "value": 0.1391, "units": "%g", "flag": "0", "ln_sigma": 0.0}, {"name": "sa(1.0)", "value": 0.0212, "units": "%g", "flag": "0", "ln_sigma": 0.0}, {"name": "sa(3.0)", "value": 0.0013, "units": "%g", "flag": "0", "ln_sigma": 0.0}]}], "station_type": "seismic", "nresp": "null", "predictions": [{"name": "mmi", "value": 2.0105, "value_rock": 2.0105, "value_soil": 2.0105, "units": "intensity", "tau": 0.3983, "phi": 0.6048, "sigma": 0.7242, "sigma_rock": 0.7242, "sigma_soil": 0.7242, "bias": 0.0, "bias_sigma": 0.0896}, {"name": "sa(0.3)", "value": 0.0549, "value_rock": 0.0646, "value_soil": 0.1197, "units": "%g", "ln_tau": 0.3402, "ln_phi": 0.6392, "ln_sigma": 0.7242, "ln_sigma_rock": 0.7328, "ln_sigma_soil": 0.7328, "ln_bias": 0.0, "ln_bias_sigma": 0.0764}, {"name": "sa(3.0)", "value": 0.0015, "value_rock": 0.0018, "value_soil": 0.0036, "units": "%g", "ln_tau": 0.3384, "ln_phi": 0.6283, "ln_sigma": 0.7136, "ln_sigma_rock": 0.726, "ln_sigma_soil": 0.726, "ln_bias": 0.0, "ln_bias_sigma": 0.0747}, {"name": "pgv", "value": 0.0122, "value_rock": 0.0144, "value_soil": 0.0314, "units": "cm/s", "ln_tau": 0.3217, "ln_phi": 0.5848, "ln_sigma": 0.6675, "ln_sigma_rock": 0.672, "ln_sigma_soil": 0.672, "ln_bias": 0.0, "ln_bias_sigma": 0.0702}, {"name": "sa(1.0)", "value": 0.0105, "value_rock": 0.0122, "value_soil": 0.0281, "units": "%g", "ln_tau": 0.3684, "ln_phi": 0.6272, "ln_sigma": 0.7274, "ln_sigma_rock": 0.7385, "ln_sigma_soil": 0.7385, "ln_bias": 0.0, "ln_bias_sigma": 0.2771}, {"name": "pga", "value": 0.0524, "value_rock": 0.063, "value_soil": 0.084, "units": "%g", "ln_tau": 0.4013, "ln_phi": 0.5814, "ln_sigma": 0.7064, "ln_sigma_rock": 0.7114, "ln_sigma_soil": 0.7114, "ln_bias": 0.0, "ln_bias_sigma": 0.0721}], "mmi_from_pgm": [{"name": "sa(0.3)", "value": 2.57, "sigma": 0.82, "flag": "0"}, {"name": "sa(3.0)", "value": 1.55, "sigma": 0.89, "flag": "0"}, {"name": "pgv", "value": 2.14, "sigma": 0.64, "flag": "0"}, {"name": "sa(1.0)", "value": 1.35, "sigma": 0.75, "flag": "0"}, {"name": "pga", "value": 2.21, "sigma": 0.62, "flag": "0"}], "distance_stddev": 0.951, "distances": {"repi": 281.679, "rhypo": 329.21, "rjb": 280.364, "rjb_var": 0.779, "rrup": 328.103, "rrup_var": 0.905, "rx": 0.0, "ry0": 0.0, "rvolc": 0.0}}, "geometry": {"type": "Point", "coordinates": [176.246, -40.6796]}}, {"type": "Feature", "id": "NZ.BKZ", "properties": {"code": "BKZ", "name": "BKZ", "refid": null, "instrumentType": "UNK", "source": null, "network": "NZ", "commType": "UNK", "location": "", "intensity": 2.7, "intensity_flag": "", "intensity_stddev": 0.643, "pga": 0.5631, "pgv": 0.136, "distance": 206.649, "elev": null, "vs30": 1000.0, "channels": [{"name": "21.HNE", "amplitudes": [{"name": "pga", "value": 0.5631, "units": "%g", "flag": "0", "ln_sigma": 0.0}, {"name": "pgv", "value": 0.136, "units": "cm/s", "flag": "0", "ln_sigma": 0.0}, {"name": "sa(0.3)", "value": 0.5094, "units": "%g", "flag": "0", "ln_sigma": 0.0}, {"name": "sa(1.0)", "value": 0.043, "units": "%g", "flag": "0", "ln_sigma": 0.0}, {"name": "sa(3.0)", "value": 0.004, "units": "%g", "flag": "0", "ln_sigma": 0.0}]}, {"name": "21.HNN", "amplitudes": [{"name": "pga", "value": 0.5441, "units": "%g", "flag": "0", "ln_sigma": 0.0}, {"name": "pgv", "value": 0.1315, "units": "cm/s", "flag": "0", "ln_sigma": 0.0}, {"name": "sa(0.3)", "value": 0.605, "units": "%g", "flag": "0", "ln_sigma": 0.0}, {"name": "sa(1.0)", "value": 0.0623, "units": "%g", "flag": "0", "ln_sigma": 0.0}, {"name": "sa(3.0)", "value": 0.0054, "units": "%g", "flag": "0", "ln_sigma": 0.0}]}, {"name": "21.HNZ", "amplitudes": [{"name": "pga", "value": 0.2111, "units": "%g", "flag": "0", "ln_sigma": 0.0}, {"name": "pgv", "value": 0.0361, "units": "cm/s", "flag": "0", "ln_sigma": 0.0}, {"name": "sa(0.3)", "value": 0.2551, "units": "%g", "flag": "0", "ln_sigma": 0.0}, {"name": "sa(1.0)", "value": 0.0153, "units": "%g", "flag": "0", "ln_sigma": 0.0}, {"name": "sa(3.0)", "value": 0.001, "units": "%g", "flag": "0", "ln_sigma": 0.0}]}], "station_type": "seismic", "nresp": "null", "predictions": [{"name": "mmi", "value": 2.5222, "value_rock": 2.5222, "value_soil": 2.5222, "units": "intensity", "tau": 0.4017, "phi": 0.6099, "sigma": 0.7303, "sigma_rock": 0.7303, "sigma_soil": 0.7303, "bias": 0.0, "bias_sigma": 0.0904}, {"name": "sa(0.3)", "value": 0.176, "value_rock": 0.2072, "value_soil": 0.3833, "units": "%g", "ln_tau": 0.3402, "ln_phi": 0.6393, "ln_sigma": 0.7242, "ln_sigma_rock": 0.7328, "ln_sigma_soil": 0.7328, "ln_bias": 0.0, "ln_bias_sigma": 0.0764}, {"name": "sa(3.0)", "value": 0.0038, "value_rock": 0.0044, "value_soil": 0.0088, "units": "%g", "ln_tau": 0.3384, "ln_phi": 0.6283, "ln_sigma": 0.7136, "ln_sigma_rock": 0.726, "ln_sigma_soil": 0.726, "ln_bias": 0.0, "ln_bias_sigma": 0.0747}, {"name": "pgv", "value": 0.0355, "value_rock": 0.0421, "value_soil": 0.0917, "units": "cm/s", "ln_tau": 0.3217, "ln_phi": 0.5848, "ln_sigma": 0.6675, "ln_sigma_rock": 0.672, "ln_sigma_soil": 0.672, "ln_bias": 0.0, "ln_bias_sigma": 0.0702}, {"name": "sa(1.0)", "value": 0.0303, "value_rock": 0.0353, "value_soil": 0.0811, "units": "%g", "ln_tau": 0.3684, "ln_phi": 0.6272, "ln_sigma": 0.7274, "ln_sigma_rock": 0.7386, "ln_sigma_soil": 0.7385, "ln_bias": 0.0, "ln_bias_sigma": 0.2771}, {"name": "pga", "value": 0.1683, "value_rock": 0.2023, "value_soil": 0.2694, "units": "%g", "ln_tau": 0.4013, "ln_phi": 0.5814, "ln_sigma": 0.7064, "ln_sigma_rock": 0.7114, "ln_sigma_soil": 0.7115, "ln_bias": 0.0, "ln_bias_sigma": 0.0721}], "mmi_from_pgm": [{"name": "sa(0.3)", "value": 2.91, "sigma": 0.82, "flag": "0"}, {"name": "sa(3.0)", "value": 1.88, "sigma": 0.89, "flag": "0"}, {"name": "pgv", "value": 2.67, "sigma": 0.64, "flag": "0"}, {"name": "sa(1.0)", "value": 1.89, "sigma": 0.75, "flag": "0"}, {"name": "pga", "value": 3.29, "sigma": 0.62, "flag": "0"}], "distance_stddev": 0.851, "distances": {"repi": 119.72, "rhypo": 208.253, "rjb": 118.408, "rjb_var": 0.778, "rrup": 206.649, "rrup_var": 0.724, "rx": 0.0, "ry0": 0.0, "rvolc": 0.0}}, "geometry": {"type": "Point", "coordinates": [176.493, -39.1656]}}, {"type": "Feature", "id": "NZ.BMTS", "properties": {"code": "BMTS", "name": "BMTS", "refid": null, "instrumentType": "UNK", "source": null, "network": "NZ", "commType": "UNK", "location": "", "intensity": 1.5, "intensity_flag": "", "intensity_stddev": 0.643, "pga": 0.0772, "pgv": 0.0336, "distance": 388.721, "elev": null, "vs30": 371.48, "channels": [{"name": "20.HN1", "amplitudes": [{"name": "pga", "value": 0.0723, "units": "%g", "flag": "0", "ln_sigma": 0.0}, {"name": "pgv", "value": 0.0336, "units": "cm/s", "flag": "0", "ln_sigma": 0.0}, {"name": "sa(0.3)", "value": 0.1677, "units": "%g", "flag": "0", "ln_sigma": 0.0}, {"name": "sa(1.0)", "value": 0.0139, "units": "%g", "flag": "0", "ln_sigma": 0.0}, {"name": "sa(3.0)", "value": 0.0012, "units": "%g", "flag": "0", "ln_sigma": 0.0}]}, {"name": "20.HN2", "amplitudes": [{"name": "pga", "value": 0.0772, "units": "%g", "flag": "0", "ln_sigma": 0.0}, {"name": "pgv", "value": 0.0263, "units": "cm/s", "flag": "0", "ln_sigma": 0.0}, {"name": "sa(0.3)", "value": 0.1148, "units": "%g", "flag": "0", "ln_sigma": 0.0}, {"name": "sa(1.0)", "value": 0.0197, "units": "%g", "flag": "0", "ln_sigma": 0.0}, {"name": "sa(3.0)", "value": 0.0015, "units": "%g", "flag": "0", "ln_sigma": 0.0}]}, {"name": "20.HNZ", "amplitudes": [{"name": "pga", "value": 0.0518, "units": "%g", "flag": "0", "ln_sigma": 0.0}, {"name": "pgv", "value": 0.0105, "units": "cm/s", "flag": "0", "ln_sigma": 0.0}, {"name": "sa(0.3)", "value": 0.0763, "units": "%g", "flag": "0", "ln_sigma": 0.0}, {"name": "sa(1.0)", "value": 0.0088, "units": "%g", "flag": "0", "ln_sigma": 0.0}, {"name": "sa(3.0)", "value": 0.0006, "units": "%g", "flag": "0", "ln_sigma": 0.0}]}], "station_type": "seismic", "nresp": "null", "predictions": [{"name": "mmi", "value": 1.8228, "value_rock": 1.8228, "value_soil": 1.8228, "units": "intensity", "tau": 0.3977, "phi": 0.6038, "sigma": 0.723, "sigma_rock": 0.723, "sigma_soil": 0.723, "bias": 0.0, "bias_sigma": 0.0895}, {"name": "sa(0.3)", "value": 0.0547, "value_rock": 0.0398, "value_soil": 0.0739, "units": "%g", "ln_tau": 0.3402, "ln_phi": 0.6392, "ln_sigma": 0.7241, "ln_sigma_rock": 0.7328, "ln_sigma_soil": 0.7328, "ln_bias": 0.0, "ln_bias_sigma": 0.0764}, {"name": "sa(3.0)", "value": 0.0015, "value_rock": 0.0012, "value_soil": 0.0024, "units": "%g", "ln_tau": 0.3384, "ln_phi": 0.6282, "ln_sigma": 0.7136, "ln_sigma_rock": 0.726, "ln_sigma_soil": 0.726, "ln_bias": 0.0, "ln_bias_sigma": 0.0747}, {"name": "pgv", "value": 0.0134, "value_rock": 0.0093, "value_soil": 0.0203, "units": "cm/s", "ln_tau": 0.3217, "ln_phi": 0.5848, "ln_sigma": 0.6675, "ln_sigma_rock": 0.672, "ln_sigma_soil": 0.672, "ln_bias": 0.0, "ln_bias_sigma": 0.0702}, {"name": "sa(1.0)", "value": 0.0106, "value_rock": 0.0079, "value_soil": 0.0181, "units": "%g", "ln_tau": 0.3684, "ln_phi": 0.6272, "ln_sigma": 0.7274, "ln_sigma_rock": 0.7385, "ln_sigma_soil": 0.7385, "ln_bias": 0.0, "ln_bias_sigma": 0.2771}, {"name": "pga", "value": 0.0468, "value_rock": 0.0392, "value_soil": 0.0523, "units": "%g", "ln_tau": 0.4013, "ln_phi": 0.5814, "ln_sigma": 0.7064, "ln_sigma_rock": 0.7114, "ln_sigma_soil": 0.7114, "ln_bias": 0.0, "ln_bias_sigma": 0.0721}], "mmi_from_pgm": [{"name": "sa(0.3)", "value": 2.0, "sigma": 0.82, "flag": "0"}, {"name": "sa(3.0)", "value": 1.0, "sigma": 0.89, "flag": "0"}, {"name": "pgv", "value": 1.51, "sigma": 0.64, "flag": "0"}, {"name": "sa(1.0)", "value": 1.0, "sigma": 0.75, "flag": "0"}, {"name": "pga", "value": 1.76, "sigma": 0.62, "flag": "0"}], "distance_stddev": 0.936, "distances": {"repi": 350.871, "rhypo": 390.06, "rjb": 349.555, "rjb_var": 0.78, "rrup": 388.721, "rrup_var": 0.876, "rx": 0.0, "ry0": 0.0, "rvolc": 0.0}}, "geometry": {"type": "Point", "coordinates": [174.926, -41.1914]}}, {"type": "Feature", "id": "NZ.BSWZ", "properties": {"code": "BSWZ", "name": "BSWZ", "refid": null, "instrumentType": "UNK", "source": null, "network": "NZ", "commType": "UNK", "location": "", "intensity": 1.0, "intensity_flag": "", "intensity_stddev": 0.643, "pga": 0.0163, "pgv": 0.0083, "distance": 467.442, "elev": null, "vs30": 372.01, "channels": [{"name": "20.HNE", "amplitudes": [{"name": "pga", "value": 0.0122, "units": "%g", "flag": "0", "ln_sigma": 0.0}, {"name": "pgv", "value": 0.0062, "units": "cm/s", "flag": "0", "ln_sigma": 0.0}, {"name": "sa(0.3)", "value": 0.0307, "units": "%g", "flag": "0", "ln_sigma": 0.0}, {"name": "sa(1.0)", "value": 0.0053, "units": "%g", "flag": "0", "ln_sigma": 0.0}, {"name": "sa(3.0)", "value": 0.0003, "units": "%g", "flag": "0", "ln_sigma": 0.0}]}, {"name": "20.HNN", "amplitudes": [{"name": "pga", "value": 0.0163, "units": "%g", "flag": "0", "ln_sigma": 0.0}, {"name": "pgv", "value": 0.0083, "units": "cm/s", "flag": "0", "ln_sigma": 0.0}, {"name": "sa(0.3)", "value": 0.0492, "units": "%g", "flag": "0", "ln_sigma": 0.0}, {"name